<?xml version="1.0" encoding="UTF-8"?>
<kml xmlns="http://www.opengis.net/kml/2.2" xmlns:gx="http://www.google.com/kml/ext/2.2" xmlns:kml="http://www.opengis.net/kml/2.2" xmlns:atom="http://www.w3.org/2005/Atom">
<Document id="KmlFile">
	<gx:CascadingStyle kml:id="__managed_style_053670947141A7EFB4CF_highlight">
		<styleUrl>https://earth.google.com/balloon_components/base/1.1.0.0/card_template.kml#main</styleUrl>
		<Style>
			<IconStyle>
				<scale>1.2</scale>
				<Icon>
					<href>https://earth.google.com/earth/document/icon?color=1976d2&amp;id=2000&amp;scale=4</href>
				</Icon>
				<hotSpot x="64" y="128" xunits="pixels" yunits="insetPixels"/>
			</IconStyle>
			<LabelStyle>
			</LabelStyle>
			<LineStyle>
				<color>ff2dc0fb</color>
				<width>6</width>
			</LineStyle>
			<PolyStyle>
				<color>40ffffff</color>
			</PolyStyle>
			<BalloonStyle>
			</BalloonStyle>
		</Style>
	</gx:CascadingStyle>
	<gx:CascadingStyle kml:id="__managed_style_053670947141A7EFB4CF_normal">
		<styleUrl>https://earth.google.com/balloon_components/base/1.1.0.0/card_template.kml#main</styleUrl>
		<Style>
			<IconStyle>
				<Icon>
					<href>https://earth.google.com/earth/document/icon?color=1976d2&amp;id=2000&amp;scale=4</href>
				</Icon>
				<hotSpot x="64" y="128" xunits="pixels" yunits="insetPixels"/>
			</IconStyle>
			<LabelStyle>
			</LabelStyle>
			<LineStyle>
				<color>ff2dc0fb</color>
				<width>4</width>
			</LineStyle>
			<PolyStyle>
				<color>40ffffff</color>
			</PolyStyle>
			<BalloonStyle>
			</BalloonStyle>
		</Style>
	</gx:CascadingStyle>
	<StyleMap id="__managed_style_053670947141A7EFB4CF">
		<Pair>
			<key>normal</key>
			<styleUrl>#__managed_style_053670947141A7EFB4CF_normal</styleUrl>
		</Pair>
		<Pair>
			<key>highlight</key>
			<styleUrl>#__managed_style_053670947141A7EFB4CF_highlight</styleUrl>
		</Pair>
	</StyleMap>
	<Placemark id="08C989115D41A7EFB434">
		<name>з</name>
		<LookAt>
			<longitude>-16.9189063369305</longitude>
			<latitude>21.36221986169927</latitude>
			<altitude>26.64314162856418</altitude>
			<heading>2.493110842779712</heading>
			<tilt>19.08628342774185</tilt>
			<gx:fovy>35</gx:fovy>
			<range>26053.28305070288</range>
			<altitudeMode>absolute</altitudeMode>
		</LookAt>
		<styleUrl>#__managed_style_053670947141A7EFB4CF</styleUrl>
		<LineString>
			<coordinates>
				-16.94802750114356,21.3336846964621,0 -16.93152134323849,21.33365942357679,0 -16.92727826646526,21.33413097184024,0 -16.92607498976047,21.33365106729065,0 -16.92539644729373,21.33394717605717,0 -16.92499649260021,21.3341054144368,0 -16.92493545871164,21.33459207923329,0 -16.92322179750947,21.33529066287412,0 -16.92323623509645,21.33580315524754,0 -16.92272640294506,21.33605383349305,0 -16.92223082412249,21.33621358073194,0 -16.92185025144301,21.33672622411526,0 -16.9217168215785,21.33683219369645,0 -16.92027533221715,21.3367142633488,0 -16.91939867991723,21.33699254734458,0 -16.91902828673944,21.33737518867575,0 -16.91871704405214,21.33789530151039,0 -16.91884431781887,21.3383486980077,0 -16.91844424225295,21.33889197299447,0 -16.91581657301466,21.33826171075464,0 -16.91551768920414,21.3374266017928,0 -16.91466689147149,21.33678286127767,0 -16.91444519347744,21.33674193425024,0 -16.91350878838563,21.3399211762522,0 -16.91302216991086,21.34026525094235,0 -16.91274281779861,21.34090118354117,0 -16.91232756668706,21.34161225762261,0 -16.91190082026268,21.3417264872454,0 -16.911438926382,21.34118661337002,0 -16.91100177637978,21.34057899480891,0 -16.91011552070308,21.33967480810101,0 -16.90890058997879,21.33873920970007,0 -16.90808170184444,21.33842027140716,0 -16.9077775396555,21.33816420670052,0 -16.9070134564477,21.33851610905442,0 -16.90653205531745,21.33885425696393,0 -16.90634528176203,21.33942610786613,0 -16.90604987793609,21.33962343474597,0 -16.9058207187448,21.34052100534033,0 -16.90476293651593,21.34095154157406,0 -16.90443137831942,21.3408448367357,0 -16.90453942527973,21.34015395106662,0 -16.90465169741682,21.33930721136572,0 -16.90480311186055,21.33891227297989,0 -16.90486530645723,21.33832520717716,0 -16.90484682262427,21.33790730801772,0 -16.90462712433393,21.33777150645055,0 -16.90398647518873,21.33808018748547,0 -16.90371713967051,21.33858985461383,0 -16.9033389545569,21.33915134809826,0 -16.90237223476744,21.3395966848179,0 -16.90187524491763,21.33990646864921,0 -16.90151947654549,21.34014882584171,0 -16.89900665533784,21.33922674365011,0 -16.89858088171363,21.33900891134199,0 -16.89734069592618,21.33882597886383,0 -16.89698597715347,21.33842295328502,0 -16.896435369011,21.33817738859587,0 -16.89397158174942,21.33775836901778,0 -16.89389434813994,21.33678804122539,0 -16.89404788554074,21.33636565099433,0 -16.89394308019494,21.33599469907749,0 -16.8940956180874,21.33556537314389,0 -16.89427373816663,21.33518401036087,0 -16.88589201332579,21.33366489498136,0 -16.88147418989168,21.33343595644413,0 -16.87769377826986,21.33593741786884,0 
			</coordinates>
		</LineString>
	</Placemark>
</Document>
</kml>
<?earth data="CpcTCpQTCuwSChQwOEM5ODkxMTVENDFBN0VGQjQzNBKEERJOChIZw_XbcLpcNUAhIjQZcj3rMMARHGEF7qSkOkAYASG8VfgY5PEDQCmIVrSrFhYzQDEAsoAdUnHZQEEAAAAAAIBBQEkAAAAAAAAAgFABGAEiAtC3QAJKqRASphASoxAKHQoSGfx6OlxsVTVAIcUeKe6x8jDAKQAAAAAAAAAACh0KEhm5Qzi0alU1QCE8vMgueO4wwCkAAAAAAAAAAAodChIZcaJ8m4lVNUAhh8LEG2LtMMApAAAAAAAAAAAKHQoSGfJJBihqVTVAISyqIkAT7TDAKQAAAAAAAAAACh0KEhnRweePfVU1QCEP9hTI5uwwwCkAAAAAAAAAAAodChIZLmy07odVNUAh8qH0kczsMMApAAAAAAAAAAAKHQoSGcHOldOnVTVAIcgT-pHI7DDAKQAAAAAAAAAACh0KEhnQst-b1VU1QCHtQYNDWOwwwCkAAAAAAAAAAAodChIZiq4RMvdVNUAhrzi8NVnsMMApAAAAAAAAAAAKHQoSGU6MwJ8HVjVAIQXOK8w37DDAKQAAAAAAAAAACh0KEhn5tt0XElY1QCEg-LxRF-wwwCkAAAAAAAAAAAodChIZ10eYsDNWNUAh08HJYP7rMMApAAAAAAAAAAAKHQoSGYsqeKI6VjVAIUvaNKL16zDAKQAAAAAAAAAACh0KEhkJLu3nMlY1QCEuMAcql-swwCkAAAAAAAAAAAodChIZN9fBJEVWNUAh5jo-tl3rMMApAAAAAAAAAAAKHQoSGRzYaTheVjVAIRKlE3BF6zDAKQAAAAAAAAAACh0KEhmNdXVOgFY1QCFSe0oKMeswwCkAAAAAAAAAAAodChIZVpYwBZ5WNUAhwiWXYTnrMMApAAAAAAAAAAAKHQoSGV7j1J_BVjVAIQitbykf6zDAKQAAAAAAAAAACh0KEhkhLslRmFY1QCGWO3b0cuowwCkAAAAAAAAAAAodChIZH4D7lmFWNUAhkAoGXl_qMMApAAAAAAAAAAAKHQoSGXgKz2Y3VjVAIaKaAZwn6jDAKQAAAAAAAAAACh0KEhnsyyq4NFY1QCFR-IcUGeowwCkAAAAAAAAAAAodChIZlzj_EgVXNUAhkblCttvpMMApAAAAAAAAAAAKHQoSGTzDnJ8bVzVAIUNKKNK76TDAKQAAAAAAAAAACh0KEhkfespMRVc1QCGbGmiDqekwwCkAAAAAAAAAAAodChIZ32ai5nNXNUAhASmmTI7pMMApAAAAAAAAAAAKHQoSGV3lFmN7VzVAIUo5CFVy6TDAKQAAAAAAAAAACh0KEhnbQYIBWFc1QCGuHL0PVOkwwCkAAAAAAAAAAAodChIZqGhcLzBXNUAhKSaUaTfpMMApAAAAAAAAAAAKHQoSGaURoO30VjVAIXMArVT96DDAKQAAAAAAAAAACh0KEhngiOOct1Y1QCElRoW1regwwCkAAAAAAAAAAAodChIZSP_9taJWNUAhlITbCnjoMMApAAAAAAAAAAAKHQoSGd508O2RVjVAIR3d3Btk6DDAKQAAAAAAAAAACh0KEhnUjuH9qFY1QCGLeawIMugwwCkAAAAAAAAAAAodChIZPsUPJ79WNUAhNl0afBLoMMApAAAAAAAAAAAKHQoSGY-xIKHkVjVAIUMNkD4G6DDAKQAAAAAAAAAACh0KEhlqMLmP8VY1QCHDR4Li8ucwwCkAAAAAAAAAAAodChIZq4l1YixXNUAhUwzb3ePnMMApAAAAAAAAAAAKHQoSGdSUqJlIVzVAIQf4Noue5zDAKQAAAAAAAAAACh0KEhlQynKbQVc1QCGsW5fQiOcwwCkAAAAAAAAAAAodChIZsm9PVBRXNUAh4YRR5Y_nMMApAAAAAAAAAAAKHQoSGd0cYNbcVjVAIRet7kCX5zDAKQAAAAAAAAAACh0KEhlhqWj0wlY1QCGUwj4toecwwCkAAAAAAAAAAAodChIZBD0Ue5xWNUAh0YSyQKXnMMApAAAAAAAAAAAKHQoSGfcD5ReBVjVAIY4Plwqk5zDAKQAAAAAAAAAACh0KEhnMuYUxeFY1QCG6FqqklecwwCkAAAAAAAAAAAodChIZ-KxUbIxWNUAhQPZaqGvnMMApAAAAAAAAAAAKHQoSGeNSINOtVjVAITK4pwFa5zDAKQAAAAAAAAAACh0KEhnweWyf0lY1QCFTBsM4QecwwCkAAAAAAAAAAAodChIZdx_vzu9WNUAhAyXl3QHnMMApAAAAAAAAAAAKHQoSGRaMPhwEVzVAIUT-yUvh5jDAKQAAAAAAAAAACh0KEhlQw1L-E1c1QCFNePz6yeYwwCkAAAAAAAAAAAodChIZ4edZkNdWNUAh94_XTCXmMMApAAAAAAAAAAAKHQoSGTNEu0nJVjVAIVnFi2UJ5jDAKQAAAAAAAAAACh0KEhlfQaJMvVY1QCFwX64euOUwwCkAAAAAAAAAAAodChIZLJP84qJWNUAhQth836DlMMApAAAAAAAAAAAKHQoSGRZEGMuSVjVAIUTh0Ml85TDAKQAAAAAAAAAACh0KEhm04RxVd1Y1QCHLKlNS2-QwwCkAAAAAAAAAAAodChIZN7-2vTdWNUAhHlePQtbkMMApAAAAAAAAAAAKHQoSGbWELg8cVjVAIZZ0fVLg5DDAKQAAAAAAAAAACh0KEhnMKqS_A1Y1QCE87CV02eQwwCkAAAAAAAAAAAodChIZs1K_nOdVNUAhqy5Pc-PkMMApAAAAAAAAAAAKHQoSGV6kip7OVTVAIesYqx_v5DDAKQAAAAAAAAAACh0KEhmpxAMQa1U1QCGZBanRyeIwwCkAAAAAAAAAAAodChIZ7jwQD1xVNUAhVtrhSqjhMMApAAAAAAAAAAAKHQoSGdY_n_7_VTVAIVySGYqw4DDAKQAAAAAAAAAAEAIYACAAMswBCiQKIAoDCNAPGgcI0u1lEP8BIQAAAAAAAPA_KQAAAAAAAAAAGAASDwoICK2A7wcQ_wEQoB8YABoaCgcI____BxBAEggIrYDvBxD_ARigHyAAKAAiXggCEgUI____BzJTCk9odHRwczovL2VhcnRoLmdvb2dsZS5jb20vYmFsbG9vbl9jb21wb25lbnRzL2Jhc2UvY3VycmVudC9jYXJkX3RlbXBsYXRlLmttbCNtYWluGAAqFwgBEggI____BxD_ARkAAAAAAADwPyAAEgAaITEzdUhhX0cxaGQxX3N3U0E3aFNSdWM1WFVpSEdZazlwUA"?>
