<?xml version="1.0" encoding="UTF-8"?>
<kml xmlns="http://www.opengis.net/kml/2.2" xmlns:gx="http://www.google.com/kml/ext/2.2" xmlns:kml="http://www.opengis.net/kml/2.2" xmlns:atom="http://www.w3.org/2005/Atom">
<Document id="KmlFile">
	<gx:CascadingStyle kml:id="__managed_style_00EB96EC3341A83D4DBC_highlight">
		<Style>
			<IconStyle>
				<scale>1.2</scale>
				<Icon>
					<href>https://earth.google.com/earth/document/icon?color=1976d2&amp;id=2000&amp;scale=4</href>
				</Icon>
				<hotSpot x="64" y="128" xunits="pixels" yunits="insetPixels"/>
			</IconStyle>
			<LabelStyle>
			</LabelStyle>
			<LineStyle>
				<color>ff2dc0fb</color>
				<width>6</width>
			</LineStyle>
			<PolyStyle>
				<color>40ffffff</color>
			</PolyStyle>
			<BalloonStyle>
			</BalloonStyle>
		</Style>
	</gx:CascadingStyle>
	<gx:CascadingStyle kml:id="__managed_style_00EB96EC3341A83D4DBC_normal">
		<Style>
			<IconStyle>
				<Icon>
					<href>https://earth.google.com/earth/document/icon?color=1976d2&amp;id=2000&amp;scale=4</href>
				</Icon>
				<hotSpot x="64" y="128" xunits="pixels" yunits="insetPixels"/>
			</IconStyle>
			<LabelStyle>
			</LabelStyle>
			<LineStyle>
				<color>ff2dc0fb</color>
				<width>4</width>
			</LineStyle>
			<PolyStyle>
				<color>40ffffff</color>
			</PolyStyle>
			<BalloonStyle>
			</BalloonStyle>
		</Style>
	</gx:CascadingStyle>
	<StyleMap id="__managed_style_00EB96EC3341A83D4DBC">
		<Pair>
			<key>normal</key>
			<styleUrl>#__managed_style_00EB96EC3341A83D4DBC_normal</styleUrl>
		</Pair>
		<Pair>
			<key>highlight</key>
			<styleUrl>#__managed_style_00EB96EC3341A83D4DBC_highlight</styleUrl>
		</Pair>
	</StyleMap>
	<Placemark id="035E53A84B41A7F2D4E3">
		<name>Путь без названия</name>
		<LookAt>
			<longitude>-16.33848573221322</longitude>
			<latitude>21.81160432461935</latitude>
			<altitude>122.3395556304091</altitude>
			<heading>6.303837780107817</heading>
			<tilt>0</tilt>
			<gx:fovy>35</gx:fovy>
			<range>396553.004328981</range>
			<altitudeMode>absolute</altitudeMode>
		</LookAt>
		<styleUrl>#__managed_style_00EB96EC3341A83D4DBC</styleUrl>
		<LineString>
			<coordinates>
				-16.00418190888664,21.3409996901294,0 -15.98922377845976,21.33822672444903,0 -15.97910445156127,21.33792099446284,0 -15.97641232632296,21.33892152775068,0 -15.97121543134199,21.33912625484105,0 -15.95342544933063,21.34127373761316,0 -15.93660959073068,21.34274648633578,0 -15.90828399088973,21.33552284959067,0 -15.88379318379629,21.33249103534543,0 -15.87622817051404,21.33200152513076,0 -15.86729828364184,21.33322809092956,0 -15.86109841414388,21.33344708728792,0 -15.84354404381351,21.33368195855932,0 -15.82954439896887,21.33384430911892,0 -15.81776198887325,21.3376001601256,0 -15.80783173344243,21.33757538335129,0 -15.79414872252534,21.3399348678326,0 -15.7760093378488,21.34738088985045,0 -15.76386287117305,21.35205510596887,0 -15.75775530668635,21.3536106021446,0 -15.7292421133066,21.34150025261759,0 -15.70590519337615,21.33555221536685,0 -15.69246503857782,21.33132406297788,0 -15.67437196514342,21.32446319604092,0 -15.64489796199224,21.32305655401741,0 -15.61607098273232,21.32582023434698,0 -15.5932202961916,21.32375774705165,0 -15.58215751931034,21.32577105778653,0 -15.54436297397814,21.32616929154508,0 -15.51787228173205,21.32218448649613,0 -15.50770192259665,21.32186382370287,0 -15.49459631767941,21.32664795708502,0 -15.47323809286946,21.32928140406978,0 -15.46788116992153,21.32957158689434,0 -15.43619447642178,21.32546459313525,0 -15.42710392037216,21.32274081152525,0 -15.42414671802883,21.3226893465183,0 -15.41238303939667,21.32708637567758,0 -15.40145349417497,21.330972336222,0 -15.39458725412696,21.33244196595903,0 -15.38590152911416,21.33503467084173,0 -15.37521489733138,21.33669950884702,0 -15.35811684866824,21.33278010641476,0 -15.34367409912022,21.33274266290584,0 -15.3335993963535,21.33038883481382,0 -15.31958299432906,21.32954560775909,0 -15.29935577332864,21.33148651280636,0 -15.28871546492544,21.33423786728364,0 -15.25245624343448,21.34079746820939,0 -15.19999824559423,21.34129925881922,0 -15.18053006119619,21.34136455297536,0 -15.15633435431348,21.33339619055623,0 -15.134172128092,21.33141016422625,0 -15.11209858131649,21.33007217145331,0 -15.09215860030318,21.33353028835758,0 -15.07524343871961,21.33385078332813,0 -15.06893474287409,21.33385192055061,0 -15.06575797823966,21.33412794099962,0 -15.06142037098562,21.33426208215861,0 -15.05821997266867,21.33477633194242,0 -15.05440486433481,21.33511192320947,0 -15.03529646132651,21.33807829206317,0 
			</coordinates>
		</LineString>
	</Placemark>
</Document>
</kml>
<?earth data="Cr0RCroRCpIRChQwMzVFNTNBODRCNDFBN0YyRDRFMxKHEBJOChIZQogPTcXPNUAhtgQ-AKdWMMAR5_GJR7uVXkAYASHFaENAITcZQCkAAAAAAAAAADEA0W4EJDQYQUEAAAAAAIBBQEkAAAAAAAAAAFABGAEiINCf0YPRgtGMINCx0LXQtyDQvdCw0LfQstCw0L3QuNGPQAJKjg8Siw8SiA8KHQoSGUkNdcFLVzVAISrnyRASATDAKQAAAAAAAAAACh0KEhlNJNAGllY1QCEK0gGKe_ovwCkAAAAAAAAAAAodChIZh9mD_YFWNUAhtqW9LU31L8ApAAAAAAAAAAAKHQoSGXqZrY_DVjVAIdLvAVHs8y_AKQAAAAAAAAAACh0KEhncwW360FY1QCEA-CUmQ_EvwCkAAAAAAAAAAAodChIZQAg2t11XNUAhLBloYSfoL8ApAAAAAAAAAAAKHQoSGZCh1Tu-VzVAIc2d0kqL3y_AKQAAAAAAAAAACh0KEhl7DVLT5FU1QCEbtGiZCtEvwCkAAAAAAAAAAAodChIZlQXrIR5VNUAhYqpJioDEL8ApAAAAAAAAAAAKHQoSGaKoTA3-VDVAISpikPqgwC_AKQAAAAAAAAAACh0KEhmlpqhvTlU1QCG8PEiFDrwvwCkAAAAAAAAAAAodChIZG9nOyVxVNUAhVcUu5OG4L8ApAAAAAAAAAAAKHQoSGQpHSy5sVTVAIUrUQQHlry_AKQAAAAAAAAAACh0KEhkanxXSdlU1QCFyTSALuqgvwCkAAAAAAAAAAAodChIZJN3O9mxWNUAhvT4Ms7GiL8ApAAAAAAAAAAAKHQoSGa9tH1drVjVAIcic9x6cnS_AKQAAAAAAAAAACh0KEhlwHLT4BVc1QCEh0E6pmpYvwCkAAAAAAAAAAAodChIZvik59O1YNUAhBOeOGFGNL8ApAAAAAAAAAAAKHQoSGbCGjkggWjVAIUOixAgZhy_AKQAAAAAAAAAACh0KEhndunM5hlo1QCE2LemA-IMvwCkAAAAAAAAAAAodChIZepGAj2xXNUAhGQnnOF91L8ApAAAAAAAAAAAKHQoSGdkZ_7_mVTVAIRhBz2dsaS_AKQAAAAAAAAAACh0KEhkr3l6n0VQ1QCFXoQzHimIvwCkAAAAAAAAAAAodChIZXMAfBRBTNUAhsEI_SEdZL8ApAAAAAAAAAAAKHQoSGWNDltWzUjVAIQgH0BAwSi_AKQAAAAAAAAAACh0KEhk05XL0aFM1QCEks-WnbTsvwCkAAAAAAAAAAAodChIZ22mnyeFSNUAhyO4WkrovL8ApAAAAAAAAAAAKHQoSGSwtZ7tlUzVAIeUd5YwQKi_AKQAAAAAAAAAACh0KEhlGJajUf1M1QCFfx2S-thYvwCkAAAAAAAAAAAodChIZice4rnpSNUAhjxZDjiYJL8ApAAAAAAAAAAAKHQoSGb-R5KplUjVAIX1Wo4HxAy_AKQAAAAAAAAAACh0KEhlA_FQzn1M1QCFpT4K6O_0uwCkAAAAAAAAAAAodChIZIqk9yUtUNUAhBDFoQ0zyLsApAAAAAAAAAAAKHQoSGepms81eVDVAIVF05h6O7y7AKQAAAAAAAAAACh0KEhmXhcelUVM1QCHU2uXhVN8uwCkAAAAAAAAAAAodChIZ35VOJJ9SNUAh0ftzXa3aLsApAAAAAAAAAAAKHQoSGVAQ3sSbUjVAIXZHNcIp2S7AKQAAAAAAAAAACh0KEhmcgMbuu1M1QCF-RKfeI9MuwCkAAAAAAAAAAAodChIZR_RfmrpUNUAhXbH4T4vNLsApAAAAAAAAAAAKHQoSGaqcq-oaVTVAIZbJL1cHyi7AKQAAAAAAAAAACh0KEhmXSgrVxFU1QCEfC57ilMUuwCkAAAAAAAAAAAodChIZwxNj8DFWNUAhQAXCKhzALsApAAAAAAAAAAAKHQoSGZHPuRMxVTVAIXJachdbty7AKQAAAAAAAAAACh0KEhkeKoefLlU1QCE_aDAN9q8uwCkAAAAAAAAAAAodChIZKn3YXJRUNUAhdZtCis2qLsApAAAAAAAAAAAKHQoSGaLd1xldVDVAIYwA2mGgoy7AKQAAAAAAAAAACh0KEhmDkdNM3FQ1QCFsofAoRZkuwCkAAAAAAAAAAAodChIZaRHlnJBVNUAhjWhvg9KTLsApAAAAAAAAAAAKHQoSGdmEvIA-VzVAIblx2vFBgS7AKQAAAAAAAAAACh0KEhkPx2JjX1c1QCFOK4grZmYuwCkAAAAAAAAAAAodChIZ9wrXqmNXNUAhp5Cpb25cLsApAAAAAAAAAAAKHQoSGcwM53NZVTVAIQoJdg4LUC7AKQAAAAAAAAAACh0KEhnq6ehL11Q1QCEzYYw1skQuwCkAAAAAAAAAAAodChIZL7YdnH9UNUAhWl05_GQ5LsApAAAAAAAAAAAKHQoSGaW4sD1iVTVAIdGxfGkvLy7AKQAAAAAAAAAACh0KEhlnI7Q-d1U1QCEgFNlOhiYuwCkAAAAAAAAAAAodChIZwHjIUXdVNUAhnWckaksjLsApAAAAAAAAAAAKHQoSGe9Fo2iJVTVAIRb7mwerIS7AKQAAAAAAAAAACh0KEhkCKiczklU1QCEBYql9ch8uwCkAAAAAAAAAAAodChIZ4yrV5rNVNUAhACwdAs8dLsApAAAAAAAAAAAKHQoSGTKvHuXJVTVAIWUfUvTaGy7AKQAAAAAAAAAACh0KEhkc5odMjFY1QCGyH7ZgEhIuwCkAAAAAAAAAABACGAAgADJwCiQKIAoDCNAPGgcI0u1lEP8BIQAAAAAAAPA_KQAAAAAAAAAAGAASDwoICK2A7wcQ_wEQoB8YABoaCgcI____BxBAEggIrYDvBxD_ARigHyAAKAAiAggCKhcIARIICP___wcQ_wEZAAAAAAAA8D8gABIAGiExM3VIYV9HMWhkMV9zd1NBN2hTUnVjNVhVaUhHWWs5cFA"?>
